OBJECT_NAME,OBJECT_ID,EPOCH,MEAN_MOTION,ECCENTRICITY,INCLINATION,RA_OF_ASC_NODE,ARG_OF_PERICENTER,MEAN_ANOMALY,EPHEMERIS_TYPE,CLASSIFICATION_TYPE,NORAD_CAT_ID,ELEMENT_SET_NO,REV_AT_EPOCH,BSTAR,MEAN_MOTION_DOT,MEAN_MOTION_DDOT
SL-14 R/B,1990-018B,2026-07-13T04:54:20.814048,14.82233335,.00171744,82.5219,105.7911,43.0004,317.2549,0,U,20511,999,94117,.23597309E-4,.212E-5,0
HST,1990-037B,2026-07-13T11:30:45.235008,15.31050347,.0002205,28.4725,260.8360,88.3061,271.7788,0,U,20580,999,79260,.11487E-3,.3777E-4,0
SL-16 R/B,1990-046B,2026-07-13T00:47:52.171872,14.15023667,.00124416,70.9983,34.6648,118.1378,242.1003,0,U,20625,999,86612,.11033673E-3,.166E-5,0
COSMOS 2084,1990-055A,2026-07-13T11:38:52.022112,15.06220126,.0007862,62.7885,266.3244,316.5045,43.5434,0,U,20663,999,95526,.75331E-4,.907E-5,0
SL-6 R/B(2),1990-055D,2026-07-13T09:03:41.547744,15.04083501,.0044875,62.7802,186.2468,8.7952,351.3923,0,U,20666,999,95709,.87842E-4,.1038E-4,0
SL-8 R/B,1990-078B,2026-07-13T07:59:36.618144,14.93534984,.0343818,82.9030,137.9972,309.8776,47.2666,0,U,20775,999,82802,.34301E-3,.12107E-3,0
SL-8 R/B,1991-006B,2026-07-13T02:05:29.538816,13.77508876,.00235376,82.9411,76.7648,46.1489,114.9816,0,U,21088,999,78133,.63856873E-4,.79E-6,0
OKEAN-3,1991-039A,2026-07-13T11:03:33.793056,15.05428594,.0012264,82.5140,214.9004,261.2868,98.6970,0,U,21397,999,88395,.11612E-3,.1696E-4,0
COSMOS 2151,1991-042A,2026-07-13T11:13:44.717088,15.00510446,.0012125,82.4980,322.3177,1.3985,358.7271,0,U,21422,999,88205,.48163E-4,.635E-5,0
SL-14 R/B,1991-042B,2026-07-13T03:34:29.976384,14.81917402,.0016798,82.4934,102.5505,183.6324,176.4771,0,U,21423,999,87165,.2036614E-4,.185E-5,0
ERS-1,1991-050A,2026-07-13T02:11:06.115200,14.39532110,.00317794,98.7795,215.4215,188.0207,172.0476,0,U,21574,999,83377,.63482008E-4,.153E-5,0
ARIANE 40 R/B,1991-050F,2026-07-13T02:55:17.222304,14.42971235,.00042318,98.1863,241.5266,65.9959,294.1675,0,U,21610,999,83708,.51584286E-4,.131E-5,0
INTERCOSMOS 25,1991-086A,2026-07-13T10:36:51.007392,12.12239459,.1484493,82.6011,233.9218,205.7085,146.2354,0,U,21819,999,51192,.73209E-4,.382E-5,0
SL-8 R/B,1992-008B,2026-07-13T11:01:59.045952,13.75983474,.0035571,82.9271,174.2535,141.3392,331.8051,0,U,21876,999,72671,.95868E-4,.109E-5,0
SL-8 R/B,1992-020B,2026-07-13T02:43:29.836128,13.75550280,.00280279,82.9286,60.5973,309.6543,204.7125,0,U,21938,999,71837,.20994008E-4,.35E-6,0
USA 81,1992-023A,2026-07-12T23:33:55.246752,14.32404579,.00020881,85.0052,59.1167,65.7055,294.4355,0,U,21949,999,11272,.34784451E-4,.114E-5,0
COSMOS 2219,1992-076A,2026-07-13T03:37:40.825344,14.14109328,.00181379,71.0614,115.7964,0.6237,359.4905,0,U,22219,999,73611,-.74807049E-4,-.19E-5,0
SL-16 R/B,1992-076B,2026-07-13T12:14:18.226752,14.16876746,.0015024,71.0005,283.3316,264.2571,184.5006,0,U,22220,999,73965,.12952E-3,.212E-5,0
COSMOS 2221,1992-080A,2026-07-13T09:58:24.256992,14.96601001,.0015599,82.5045,158.6352,125.6299,234.6379,0,U,22236,999,79959,.73437E-4,.865E-5,0
SL-16 R/B,1992-093B,2026-07-13T04:16:28.851744,14.15466459,.00023645,71.0220,100.8298,139.8557,220.2741,0,U,22285,999,73091,-.77414123E-4,-.199E-5,0
COSMOS 2228,1992-094A,2026-07-13T11:29:58.369920,14.97672385,.0016206,82.5188,116.8593,235.3883,124.5812,0,U,22286,999,79488,.77141E-4,.931E-5,0
SL-16 R/B,1993-016B,2026-07-13T10:38:50.635104,14.15311930,.0008915,71.0084,311.0595,141.1649,219.0116,0,U,22566,999,71996,.76885E-4,.102E-5,0
COSMOS 2242,1993-024A,2026-07-13T09:12:42.816960,14.96981670,.0014561,82.5198,146.4796,239.3618,120.6169,0,U,22626,999,79919,.76929E-4,.912E-5,0
SL-16 R/B,1993-059B,2026-07-13T06:02:27.236832,14.17249915,.0016548,70.9903,106.3392,11.4267,348.7229,0,U,22803,999,69732,-.90932E-4,-.232E-5,0
ARIANE 40 R/B,1993-061H,2026-07-13T04:21:12.021696,14.32918102,.00094778,98.4808,260.4969,272.3235,87.6864,0,U,22830,999,71207,.44651745E-4,.79E-6,0
COSMOS 2278,1994-023A,2026-07-13T11:38:29.277312,14.14393262,.0009741,71.0525,271.9044,208.1977,151.8619,0,U,23087,999,66259,-.99186E-5,-.66E-6,0
SL-16 R/B,1994-023B,2026-07-13T08:00:31.501152,14.15024016,.0001438,70.9982,167.0209,135.3701,224.7538,0,U,23088,999,66386,.3604E-4,.22E-6,0
SL-16 R/B,1994-074B,2026-07-13T01:03:14.999040,14.79523286,.00069852,97.6986,219.6865,160.7187,227.7465,0,U,23343,999,70578,.34439292E-4,.208E-5,0
SL-16 R/B,1994-077B,2026-07-13T02:59:56.263200,14.15574600,.00040908,70.9823,88.5951,304.9983,55.0756,0,U,23405,999,63398,-.73168018E-4,-.191E-5,0
ARIANE 40+ R/B,1995-021B,2026-07-13T04:14:31.009920,14.39846937,.00078451,98.4401,263.8749,121.6463,264.6723,0,U,23561,999,63730,.52738263E-4,.122E-5,0
